[{"OBJECT_NAME":"IRIDIUM 153","OBJECT_ID":"2017-083J","EPOCH":"2026-03-09T17:37:27.321600","MEAN_MOTION":14.3421931,"ECCENTRICITY":0.00020663,"INCLINATION":86.4011,"RA_OF_ASC_NODE":332.0651,"ARG_OF_PERICENTER":78.2032,"MEAN_ANOMALY":281.9395,"EPHEMERIS_TYPE":0,"CLASSIFICATION_TYPE":"U","NORAD_CAT_ID":43078,"ELEMENT_SET_NO":999,"REV_AT_EPOCH":43102,"BSTAR":0.00013580014,"MEAN_MOTION_DOT":4.0e-6,"MEAN_MOTION_DDOT":0},{"OBJECT_NAME":"CZ-6A DEB","OBJECT_ID":"2024-140BN","EPOCH":"2026-03-09T14:25:33.947904","MEAN_MOTION":14.42502323,"ECCENTRICITY":0.0042937,"INCLINATION":88.8734,"RA_OF_ASC_NODE":275.1497,"ARG_OF_PERICENTER":262.9659,"MEAN_ANOMALY":96.6659,"EPHEMERIS_TYPE":0,"CLASSIFICATION_TYPE":"U","NORAD_CAT_ID":60661,"ELEMENT_SET_NO":999,"REV_AT_EPOCH":8319,"BSTAR":0.00083439,"MEAN_MOTION_DOT":2.809e-5,"MEAN_MOTION_DDOT":0}]
